[{"OBJECT_NAME":"LEMUR-2-EMBRIONOVIS","OBJECT_ID":"2023-084AQ","EPOCH":"2026-03-09T22:21:55.974240","MEAN_MOTION":15.34650722,"ECCENTRICITY":0.00082915,"INCLINATION":97.613,"RA_OF_ASC_NODE":209.6192,"ARG_OF_PERICENTER":311.1934,"MEAN_ANOMALY":48.8593,"EPHEMERIS_TYPE":0,"CLASSIFICATION_TYPE":"U","NORAD_CAT_ID":56970,"ELEMENT_SET_NO":999,"REV_AT_EPOCH":15244,"BSTAR":0.00028007408,"MEAN_MOTION_DOT":9.331e-5,"MEAN_MOTION_DDOT":0},{"OBJECT_NAME":"STARLINK-36179","OBJECT_ID":"2025-299T","EPOCH":"2026-03-09T14:33:51.848640","MEAN_MOTION":15.36441167,"ECCENTRICITY":0.00016869,"INCLINATION":43.0006,"RA_OF_ASC_NODE":169.4613,"ARG_OF_PERICENTER":271.6543,"MEAN_ANOMALY":88.4119,"EPHEMERIS_TYPE":0,"CLASSIFICATION_TYPE":"U","NORAD_CAT_ID":67119,"ELEMENT_SET_NO":999,"REV_AT_EPOCH":1310,"BSTAR":-0.011187519,"MEAN_MOTION_DOT":-0.00386697,"MEAN_MOTION_DDOT":0}]
